[{"OBJECT_NAME":"YAOGAN-32 02B","OBJECT_ID":"2021-099B","EPOCH":"2026-03-09T22:33:19.291104","MEAN_MOTION":14.64050838,"ECCENTRICITY":0.00012785,"INCLINATION":98.2293,"RA_OF_ASC_NODE":202.7352,"ARG_OF_PERICENTER":124.0127,"MEAN_ANOMALY":236.1197,"EPHEMERIS_TYPE":0,"CLASSIFICATION_TYPE":"U","NORAD_CAT_ID":49384,"ELEMENT_SET_NO":999,"REV_AT_EPOCH":23184,"BSTAR":0.000246305,"MEAN_MOTION_DOT":1.244e-5,"MEAN_MOTION_DDOT":0},{"OBJECT_NAME":"SL-8 DEB","OBJECT_ID":"1990-004D","EPOCH":"2026-03-09T22:48:54.387072","MEAN_MOTION":14.64576377,"ECCENTRICITY":0.00117253,"INCLINATION":74.024,"RA_OF_ASC_NODE":139.0631,"ARG_OF_PERICENTER":171.5908,"MEAN_ANOMALY":242.6719,"EPHEMERIS_TYPE":0,"CLASSIFICATION_TYPE":"U","NORAD_CAT_ID":20435,"ELEMENT_SET_NO":999,"REV_AT_EPOCH":90789,"BSTAR":0.0004954551,"MEAN_MOTION_DOT":2.603e-5,"MEAN_MOTION_DDOT":0}]
